[{"OBJECT_NAME":"STARLINK-5570","OBJECT_ID":"2023-014AU","EPOCH":"2026-03-09T12:07:30.730656","MEAN_MOTION":14.98318176,"ECCENTRICITY":0.00031327,"INCLINATION":69.9992,"RA_OF_ASC_NODE":104.8203,"ARG_OF_PERICENTER":269.6971,"MEAN_ANOMALY":90.3829,"EPHEMERIS_TYPE":0,"CLASSIFICATION_TYPE":"U","NORAD_CAT_ID":55433,"ELEMENT_SET_NO":999,"REV_AT_EPOCH":17104,"BSTAR":0.0001441198,"MEAN_MOTION_DOT":1.626e-5,"MEAN_MOTION_DDOT":0},{"OBJECT_NAME":"FENGYUN 1C DEB","OBJECT_ID":"1999-025SE","EPOCH":"2026-03-09T20:24:07.039872","MEAN_MOTION":14.23602546,"ECCENTRICITY":0.03405533,"INCLINATION":98.718,"RA_OF_ASC_NODE":172.0354,"ARG_OF_PERICENTER":91.4658,"MEAN_ANOMALY":34.7461,"EPHEMERIS_TYPE":0,"CLASSIFICATION_TYPE":"U","NORAD_CAT_ID":30125,"ELEMENT_SET_NO":999,"REV_AT_EPOCH":98160,"BSTAR":0.00090622309,"MEAN_MOTION_DOT":3.722e-5,"MEAN_MOTION_DDOT":0}]
